TEVEL2-1                
1 63217U 25052H   26087.21328411  .00020763  00000+0  69300-3 0  9996
2 63217  97.3973 343.2722 0004702  68.7011 291.4731 15.31068658 57695
TEVEL2-3                
1 63218U 25052J   26087.60253512  .00022589  00000+0  75220-3 0  9995
2 63218  97.3976 343.6737 0004720  68.3770 291.7974 15.31125665 57758
TEVEL2-2                
1 63219U 25052K   26087.60604255  .00022185  00000+0  73966-3 0  9997
2 63219  97.3973 343.6651 0004641  67.9808 292.1925 15.31089999 57750
TEVEL2-9                
1 63237U 25052AD  26087.61594302  .00020164  00000+0  70972-3 0  9998
2 63237  97.4037 343.2105 0008416  73.2665 286.9498 15.29325175 57704
TEVEL2-7                
1 63238U 25052AE  26087.44669849  .00019877  00000+0  70482-3 0  9994
2 63238  97.4038 342.9886 0008502  73.8599 286.3577 15.29085085 57677
TEVEL2-8                
1 63239U 25052AF  26087.25765909  .00019415  00000+0  68916-3 0  9995
2 63239  97.4038 342.7805 0008455  74.9306 285.2869 15.29055628 57641
HADES-ICM               
1 63492U 25052BN  26087.23873368  .00215653  00000+0  23342-2 0  9998
2 63492  97.3910 348.4371 0008050  79.3762 280.8403 15.62839753 58032
INNOSAT 16 (RS92S7)     
1 64878U 25155C   26087.55671202  .00007556  00000+0  30989-3 0  9996
2 64878  97.4487  55.0355 0012612 106.7029 253.5593 15.24464488 68387
GEOSCAN 6 (RS92S6)      
1 64879U 25155D   26087.57270847  .00014359  00000+0  51995-3 0  9998
2 64879  97.4486  55.9462 0010229 100.1186 260.1208 15.28453241 68442
GEOSCAN 1 (RS92S1)      
1 64880U 25155E   26087.60305683  .00015274  00000+0  54522-3 0  9997
2 64880  97.4482  56.0626 0010168 100.1690 260.0697 15.28910457 68455
239ALFEROV (RS61S)      
1 64881U 25155F   26087.60906988  .00019619  00000+0  66440-3 0  9992
2 64881  97.4486  56.3895 0009925  99.3755 260.8609 15.30574427 68470
GEOSCAN 2 (RS92S2)      
1 64890U 25155Q   26087.61169813  .00015370  00000+0  54372-3 0  9992
2 64890  97.4481  56.1902 0009553  89.8505 270.3830 15.29210432 68468
GEOSCAN 5 (RS92S5)      
1 64891U 25155R   26087.54975993  .00019519  00000+0  65454-3 0  9991
2 64891  97.4479  56.4359 0008695 103.8137 256.4073 15.30904354 68479
GEOSCAN 4 (RS92S4)      
1 64892U 25155S   26087.60619342  .00020460  00000+0  68349-3 0  9995
2 64892  97.4482  56.5210 0008737 104.1029 256.1184 15.31017396 68485
GEOSCAN 3 (RS92S3)      
1 64893U 25155T   26087.56698955  .00024184  00000+0  77140-3 0  9994
2 64893  97.4474  56.7102 0008579 105.2095 255.0096 15.32472992 68497
INNOSAT 3 (RS92S0)      
1 64894U 25155U   26087.59966932  .00046095  00000+0  12234-2 0  9998
2 64894  97.4439  57.5387 0008480 103.6966 256.5224 15.38118474 68557
