[{"OBJECT_NAME":"TEVEL2-1","OBJECT_ID":"2025-052H","EPOCH":"2026-03-28T05:07:07.747104","MEAN_MOTION":15.31068658,"ECCENTRICITY":0.0004702,"INCLINATION":97.3973,"RA_OF_ASC_NODE":343.2722,"ARG_OF_PERICENTER":68.7011,"MEAN_ANOMALY":291.4731,"EPHEMERIS_TYPE":0,"CLASSIFICATION_TYPE":"U","NORAD_CAT_ID":63217,"ELEMENT_SET_NO":999,"REV_AT_EPOCH":5769,"BSTAR":0.000693,"MEAN_MOTION_DOT":0.00020763,"MEAN_MOTION_DDOT":0},{"OBJECT_NAME":"TEVEL2-3","OBJECT_ID":"2025-052J","EPOCH":"2026-03-28T14:27:39.034368","MEAN_MOTION":15.31125665,"ECCENTRICITY":0.00047205,"INCLINATION":97.3976,"RA_OF_ASC_NODE":343.6737,"ARG_OF_PERICENTER":68.377,"MEAN_ANOMALY":291.7974,"EPHEMERIS_TYPE":0,"CLASSIFICATION_TYPE":"U","NORAD_CAT_ID":63218,"ELEMENT_SET_NO":999,"REV_AT_EPOCH":5775,"BSTAR":0.00075220111,"MEAN_MOTION_DOT":0.00022589,"MEAN_MOTION_DDOT":0},{"OBJECT_NAME":"TEVEL2-2","OBJECT_ID":"2025-052K","EPOCH":"2026-03-28T14:32:42.076320","MEAN_MOTION":15.31089999,"ECCENTRICITY":0.00046416,"INCLINATION":97.3973,"RA_OF_ASC_NODE":343.6651,"ARG_OF_PERICENTER":67.9808,"MEAN_ANOMALY":292.1925,"EPHEMERIS_TYPE":0,"CLASSIFICATION_TYPE":"U","NORAD_CAT_ID":63219,"ELEMENT_SET_NO":999,"REV_AT_EPOCH":5775,"BSTAR":0.00073965955,"MEAN_MOTION_DOT":0.00022185,"MEAN_MOTION_DDOT":0},{"OBJECT_NAME":"TEVEL2-9","OBJECT_ID":"2025-052AD","EPOCH":"2026-03-28T14:46:57.476928","MEAN_MOTION":15.29325175,"ECCENTRICITY":0.00084161,"INCLINATION":97.4037,"RA_OF_ASC_NODE":343.2105,"ARG_OF_PERICENTER":73.2665,"MEAN_ANOMALY":286.9498,"EPHEMERIS_TYPE":0,"CLASSIFICATION_TYPE":"U","NORAD_CAT_ID":63237,"ELEMENT_SET_NO":999,"REV_AT_EPOCH":5770,"BSTAR":0.00070972089,"MEAN_MOTION_DOT":0.00020164,"MEAN_MOTION_DDOT":0},{"OBJECT_NAME":"TEVEL2-7","OBJECT_ID":"2025-052AE","EPOCH":"2026-03-28T10:43:14.749536","MEAN_MOTION":15.29085085,"ECCENTRICITY":0.00085029,"INCLINATION":97.4038,"RA_OF_ASC_NODE":342.9886,"ARG_OF_PERICENTER":73.8599,"MEAN_ANOMALY":286.3577,"EPHEMERIS_TYPE":0,"CLASSIFICATION_TYPE":"U","NORAD_CAT_ID":63238,"ELEMENT_SET_NO":999,"REV_AT_EPOCH":5767,"BSTAR":0.00070481899,"MEAN_MOTION_DOT":0.00019877,"MEAN_MOTION_DDOT":0},{"OBJECT_NAME":"TEVEL2-8","OBJECT_ID":"2025-052AF","EPOCH":"2026-03-28T06:11:01.745376","MEAN_MOTION":15.29055628,"ECCENTRICITY":0.0008455,"INCLINATION":97.4038,"RA_OF_ASC_NODE":342.7805,"ARG_OF_PERICENTER":74.9306,"MEAN_ANOMALY":285.2869,"EPHEMERIS_TYPE":0,"CLASSIFICATION_TYPE":"U","NORAD_CAT_ID":63239,"ELEMENT_SET_NO":999,"REV_AT_EPOCH":5764,"BSTAR":0.00068916,"MEAN_MOTION_DOT":0.00019415,"MEAN_MOTION_DDOT":0},{"OBJECT_NAME":"HADES-ICM","OBJECT_ID":"2025-052BN","EPOCH":"2026-03-28T05:43:46.589952","MEAN_MOTION":15.62839753,"ECCENTRICITY":0.000805,"INCLINATION":97.391,"RA_OF_ASC_NODE":348.4371,"ARG_OF_PERICENTER":79.3762,"MEAN_ANOMALY":280.8403,"EPHEMERIS_TYPE":0,"CLASSIFICATION_TYPE":"U","NORAD_CAT_ID":63492,"ELEMENT_SET_NO":999,"REV_AT_EPOCH":5803,"BSTAR":0.0023342,"MEAN_MOTION_DOT":0.00215653,"MEAN_MOTION_DDOT":0},{"OBJECT_NAME":"INNOSAT 16 (RS92S7)","OBJECT_ID":"2025-155C","EPOCH":"2026-03-28T13:21:39.918528","MEAN_MOTION":15.24464488,"ECCENTRICITY":0.00126121,"INCLINATION":97.4487,"RA_OF_ASC_NODE":55.0355,"ARG_OF_PERICENTER":106.7029,"MEAN_ANOMALY":253.5593,"EPHEMERIS_TYPE":0,"CLASSIFICATION_TYPE":"U","NORAD_CAT_ID":64878,"ELEMENT_SET_NO":999,"REV_AT_EPOCH":6838,"BSTAR":0.0003098853,"MEAN_MOTION_DOT":7.556e-5,"MEAN_MOTION_DDOT":0},{"OBJECT_NAME":"GEOSCAN 6 (RS92S6)","OBJECT_ID":"2025-155D","EPOCH":"2026-03-28T13:44:42.011808","MEAN_MOTION":15.28453241,"ECCENTRICITY":0.00102292,"INCLINATION":97.4486,"RA_OF_ASC_NODE":55.9462,"ARG_OF_PERICENTER":100.1186,"MEAN_ANOMALY":260.1208,"EPHEMERIS_TYPE":0,"CLASSIFICATION_TYPE":"U","NORAD_CAT_ID":64879,"ELEMENT_SET_NO":999,"REV_AT_EPOCH":6844,"BSTAR":0.00051994813,"MEAN_MOTION_DOT":0.00014359,"MEAN_MOTION_DDOT":0},{"OBJECT_NAME":"GEOSCAN 1 (RS92S1)","OBJECT_ID":"2025-155E","EPOCH":"2026-03-28T14:28:24.110112","MEAN_MOTION":15.28910457,"ECCENTRICITY":0.00101682,"INCLINATION":97.4482,"RA_OF_ASC_NODE":56.0626,"ARG_OF_PERICENTER":100.169,"MEAN_ANOMALY":260.0697,"EPHEMERIS_TYPE":0,"CLASSIFICATION_TYPE":"U","NORAD_CAT_ID":64880,"ELEMENT_SET_NO":999,"REV_AT_EPOCH":6845,"BSTAR":0.00054521857,"MEAN_MOTION_DOT":0.00015274,"MEAN_MOTION_DDOT":0},{"OBJECT_NAME":"239ALFEROV (RS61S)","OBJECT_ID":"2025-155F","EPOCH":"2026-03-28T14:37:03.637632","MEAN_MOTION":15.30574427,"ECCENTRICITY":0.00099258,"INCLINATION":97.4486,"RA_OF_ASC_NODE":56.3895,"ARG_OF_PERICENTER":99.3755,"MEAN_ANOMALY":260.8609,"EPHEMERIS_TYPE":0,"CLASSIFICATION_TYPE":"U","NORAD_CAT_ID":64881,"ELEMENT_SET_NO":999,"REV_AT_EPOCH":6847,"BSTAR":0.0006643985,"MEAN_MOTION_DOT":0.00019619,"MEAN_MOTION_DDOT":0},{"OBJECT_NAME":"GEOSCAN 2 (RS92S2)","OBJECT_ID":"2025-155Q","EPOCH":"2026-03-28T14:40:50.718432","MEAN_MOTION":15.29210432,"ECCENTRICITY":0.00095531,"INCLINATION":97.4481,"RA_OF_ASC_NODE":56.1902,"ARG_OF_PERICENTER":89.8505,"MEAN_ANOMALY":270.383,"EPHEMERIS_TYPE":0,"CLASSIFICATION_TYPE":"U","NORAD_CAT_ID":64890,"ELEMENT_SET_NO":999,"REV_AT_EPOCH":6846,"BSTAR":0.00054371684,"MEAN_MOTION_DOT":0.0001537,"MEAN_MOTION_DDOT":0},{"OBJECT_NAME":"GEOSCAN 5 (RS92S5)","OBJECT_ID":"2025-155R","EPOCH":"2026-03-28T13:11:39.257952","MEAN_MOTION":15.30904354,"ECCENTRICITY":0.00086959,"INCLINATION":97.4479,"RA_OF_ASC_NODE":56.4359,"ARG_OF_PERICENTER":103.8137,"MEAN_ANOMALY":256.4073,"EPHEMERIS_TYPE":0,"CLASSIFICATION_TYPE":"U","NORAD_CAT_ID":64891,"ELEMENT_SET_NO":999,"REV_AT_EPOCH":6847,"BSTAR":0.00065453842,"MEAN_MOTION_DOT":0.00019519,"MEAN_MOTION_DDOT":0},{"OBJECT_NAME":"GEOSCAN 4 (RS92S4)","OBJECT_ID":"2025-155S","EPOCH":"2026-03-28T14:32:55.111488","MEAN_MOTION":15.31017396,"ECCENTRICITY":0.0008737,"INCLINATION":97.4482,"RA_OF_ASC_NODE":56.521,"ARG_OF_PERICENTER":104.1029,"MEAN_ANOMALY":256.1184,"EPHEMERIS_TYPE":0,"CLASSIFICATION_TYPE":"U","NORAD_CAT_ID":64892,"ELEMENT_SET_NO":999,"REV_AT_EPOCH":6848,"BSTAR":0.00068348764,"MEAN_MOTION_DOT":0.0002046,"MEAN_MOTION_DDOT":0},{"OBJECT_NAME":"GEOSCAN 3 (RS92S3)","OBJECT_ID":"2025-155T","EPOCH":"2026-03-28T13:36:27.897120","MEAN_MOTION":15.32472992,"ECCENTRICITY":0.00085794,"INCLINATION":97.4474,"RA_OF_ASC_NODE":56.7102,"ARG_OF_PERICENTER":105.2095,"MEAN_ANOMALY":255.0096,"EPHEMERIS_TYPE":0,"CLASSIFICATION_TYPE":"U","NORAD_CAT_ID":64893,"ELEMENT_SET_NO":999,"REV_AT_EPOCH":6849,"BSTAR":0.00077139853,"MEAN_MOTION_DOT":0.00024184,"MEAN_MOTION_DDOT":0},{"OBJECT_NAME":"INNOSAT 3 (RS92S0)","OBJECT_ID":"2025-155U","EPOCH":"2026-03-28T14:23:31.429248","MEAN_MOTION":15.38118474,"ECCENTRICITY":0.00084803,"INCLINATION":97.4439,"RA_OF_ASC_NODE":57.5387,"ARG_OF_PERICENTER":103.6966,"MEAN_ANOMALY":256.5224,"EPHEMERIS_TYPE":0,"CLASSIFICATION_TYPE":"U","NORAD_CAT_ID":64894,"ELEMENT_SET_NO":999,"REV_AT_EPOCH":6855,"BSTAR":0.0012234023,"MEAN_MOTION_DOT":0.00046095,"MEAN_MOTION_DDOT":0}]
